{"type": "FeatureCollection", "features": [ {"type": "Feature", "properties": {"norad_id": 33153, "name": "INTELSAT 25 (IS-25)", "group": "intelsat", "lat": -1.5572837033140314, "lon": -52.3491516634535, "alt_km": 35771.63713667521, "timestamp": "2025-12-02T17:49:11.693367+00:00", "meta": {"OBJECT_NAME": "INTELSAT 25 (IS-25)", "OBJECT_ID": "2008-034A", "EPOCH": "2025-12-02T08:29:55.406400", "MEAN_MOTION": 1.00271705, "ECCENTRICITY": 0.0005278, "INCLINATION": 2.1986, "RA_OF_ASC_NODE": 82.7644, "ARG_OF_PERICENTER": 176.1144, "MEAN_ANOMALY": 268.5703, "EPHEMERIS_TYPE": 0, "CLASSIFICATION_TYPE": "U", "NORAD_CAT_ID": 33153, "ELEMENT_SET_NO": 999, "REV_AT_EPOCH": 6372, "BSTAR": 0, "MEAN_MOTION_DOT": -2.03e-06, "MEAN_MOTION_DDOT": 0}, "tle": {"line1": "1 33153U 08034A   25336.35411350 -.00000203  00000+0  00000+0 0  9995", "line2": "2 33153   2.1986  82.7644 0005278 176.1144 268.5703  1.00271705 63722"}}, "geometry": {"type": "Point", "coordinates": [-52.3491516634535, -1.5572837033140314]}}, {"type": "Feature", "properties": {"norad_id": 33376, "name": "GALAXY 19 (G-19)", "group": "intelsat", "lat": -0.03844063344640024, "lon": -117.92109897257544, "alt_km": 35772.93345982908, "timestamp": "2025-12-02T17:49:11.693379+00:00", "meta": {"OBJECT_NAME": "GALAXY 19 (G-19)", "OBJECT_ID": "2008-045A", "EPOCH": "2025-12-02T09:32:38.891040", "MEAN_MOTION": 1.00270191, "ECCENTRICITY": 0.0003436, "INCLINATION": 0.0195, "RA_OF_ASC_NODE": 351.8467, "ARG_OF_PERICENTER": 271.0405, "MEAN_ANOMALY": 214.7588, "EPHEMERIS_TYPE": 0, "CLASSIFICATION_TYPE": "U", "NORAD_CAT_ID": 33376, "ELEMENT_SET_NO": 999, "REV_AT_EPOCH": 6293, "BSTAR": 0, "MEAN_MOTION_DOT": 0, "MEAN_MOTION_DDOT": 0}, "tle": {"line1": "1 33376U 08045A   25336.39767235  .00000000  00000+0  00000+0 0  9998", "line2": "2 33376   0.0195 351.8467 0003436 271.0405 214.7588  1.00270191 62934"}}, "geometry": {"type": "Point", "coordinates": [-117.92109897257544, -0.03844063344640024]}}, {"type": "Feature", "properties": {"norad_id": 35493, "name": "FM-5", "group": "intelsat", "lat": -0.029185878596639594, "lon": -107.00069462078731, "alt_km": 35786.2718648852, "timestamp": "2025-12-02T17:49:11.693391+00:00", "meta": {"OBJECT_NAME": "FM-5", "OBJECT_ID": "2009-034A", "EPOCH": "2025-12-02T08:19:38.698752", "MEAN_MOTION": 1.00271266, "ECCENTRICITY": 0.0001343, "INCLINATION": 0.0253, "RA_OF_ASC_NODE": 282.057, "ARG_OF_PERICENTER": 240.7007, "MEAN_ANOMALY": 307.4775, "EPHEMERIS_TYPE": 0, "CLASSIFICATION_TYPE": "U", "NORAD_CAT_ID": 35493, "ELEMENT_SET_NO": 999, "REV_AT_EPOCH": 4467, "BSTAR": 0, "MEAN_MOTION_DOT": -1.8e-06, "MEAN_MOTION_DDOT": 0}, "tle": {"line1": "1 35493U 09034A   25336.34697568 -.00000180  00000+0  00000+0 0  9995", "line2": "2 35493   0.0253 282.0570 0001343 240.7007 307.4775  1.00271266 44670"}}, "geometry": {"type": "Point", "coordinates": [-107.00069462078731, -0.029185878596639594]}}, {"type": "Feature", "properties": {"norad_id": 36097, "name": "INTELSAT 14 (IS-14)", "group": "intelsat", "lat": -0.00743087566950848, "lon": -65.86111792856174, "alt_km": 35777.95922436181, "timestamp": "2025-12-02T17:49:11.693416+00:00", "meta": {"OBJECT_NAME": "INTELSAT 14 (IS-14)", "OBJECT_ID": "2009-064A", "EPOCH": "2025-12-02T08:26:03.277248", "MEAN_MOTION": 1.00271807, "ECCENTRICITY": 0.0002591, "INCLINATION": 0.0187, "RA_OF_ASC_NODE": 299.668, "ARG_OF_PERICENTER": 312.5197, "MEAN_ANOMALY": 260.7885, "EPHEMERIS_TYPE": 0, "CLASSIFICATION_TYPE": "U", "NORAD_CAT_ID": 36097, "ELEMENT_SET_NO": 999, "REV_AT_EPOCH": 5863, "BSTAR": 0, "MEAN_MOTION_DOT": -2.53e-06, "MEAN_MOTION_DDOT": 0}, "tle": {"line1": "1 36097U 09064A   25336.35142682 -.00000253  00000+0  00000+0 0  9993", "line2": "2 36097   0.0187 299.6680 0002591 312.5197 260.7885  1.00271807 58632"}}, "geometry": {"type": "Point", "coordinates": [-65.86111792856174, -0.00743087566950848]}}, {"type": "Feature", "properties": {"norad_id": 36106, "name": "INTELSAT 15 (IS-15)", "group": "intelsat", "lat": 0.03607140919986654, "lon": 64.28139155755163, "alt_km": 35796.45610721255, "timestamp": "2025-12-02T17:49:11.693430+00:00", "meta": {"OBJECT_NAME": "INTELSAT 15 (IS-15)", "OBJECT_ID": "2009-067A", "EPOCH": "2025-12-02T07:20:17.077344", "MEAN_MOTION": 1.00270632, "ECCENTRICITY": 0.0002384, "INCLINATION": 0.0143, "RA_OF_ASC_NODE": 315.705, "ARG_OF_PERICENTER": 295.5476, "MEAN_ANOMALY": 15.397, "EPHEMERIS_TYPE": 0, "CLASSIFICATION_TYPE": "U", "NORAD_CAT_ID": 36106, "ELEMENT_SET_NO": 999, "REV_AT_EPOCH": 3925, "BSTAR": 0, "MEAN_MOTION_DOT": -1.64e-06, "MEAN_MOTION_DDOT": 0}, "tle": {"line1": "1 36106U 09067A   25336.30575321 -.00000164  00000+0  00000+0 0  9993", "line2": "2 36106   0.0143 315.7050 0002384 295.5476  15.3970  1.00270632 39257"}}, "geometry": {"type": "Point", "coordinates": [64.28139155755163, 0.03607140919986654]}}, {"type": "Feature", "properties": {"norad_id": 36131, "name": "DIRECTV 12", "group": "intelsat", "lat": 0.0052033583720827465, "lon": -123.59454689508982, "alt_km": 35785.28360522363, "timestamp": "2025-12-02T17:49:11.693443+00:00", "meta": {"OBJECT_NAME": "DIRECTV 12", "OBJECT_ID": "2009-075A", "EPOCH": "2025-12-02T12:21:09.010368", "MEAN_MOTION": 1.00272262, "ECCENTRICITY": 1.86e-05, "INCLINATION": 0.0107, "RA_OF_ASC_NODE": 85.0371, "ARG_OF_PERICENTER": 119.5423, "MEAN_ANOMALY": 309.6165, "EPHEMERIS_TYPE": 0, "CLASSIFICATION_TYPE": "U", "NORAD_CAT_ID": 36131, "ELEMENT_SET_NO": 999, "REV_AT_EPOCH": 4458, "BSTAR": 0, "MEAN_MOTION_DOT": -8.3e-07, "MEAN_MOTION_DDOT": 0}, "tle": {"line1": "1 36131U 09075A   25336.51468762 -.00000083  00000+0  00000+0 0  9993", "line2": "2 36131   0.0107  85.0371 0000186 119.5423 309.6165  1.00272262 44581"}}, "geometry": {"type": "Point", "coordinates": [-123.59454689508982, 0.0052033583720827465]}}, {"type": "Feature", "properties": {"norad_id": 36397, "name": "INTELSAT 16 (IS-16)", "group": "intelsat", "lat": -0.027464786893248543, "lon": -97.07691702631413, "alt_km": 35776.68342212952, "timestamp": "2025-12-02T17:49:11.693454+00:00", "meta": {"OBJECT_NAME": "INTELSAT 16 (IS-16)", "OBJECT_ID": "2010-006A", "EPOCH": "2025-12-02T08:17:11.625216", "MEAN_MOTION": 1.00270694, "ECCENTRICITY": 0.0002335, "INCLINATION": 0.0147, "RA_OF_ASC_NODE": 305.7372, "ARG_OF_PERICENTER": 307.3002, "MEAN_ANOMALY": 226.5186, "EPHEMERIS_TYPE": 0, "CLASSIFICATION_TYPE": "U", "NORAD_CAT_ID": 36397, "ELEMENT_SET_NO": 999, "REV_AT_EPOCH": 5768, "BSTAR": 0, "MEAN_MOTION_DOT": -2.24e-06, "MEAN_MOTION_DDOT": 0}, "tle": {"line1": "1 36397U 10006A   25336.34527344 -.00000224  00000+0  00000+0 0  9993", "line2": "2 36397   0.0147 305.7372 0002335 307.3002 226.5186  1.00270694 57682"}}, "geometry": {"type": "Point", "coordinates": [-97.07691702631413, -0.027464786893248543]}}, {"type": "Feature", "properties": {"norad_id": 37185, "name": "XM-5", "group": "intelsat", "lat": -0.07034711197637251, "lon": -136.05012786909944, "alt_km": 35784.357839346405, "timestamp": "2025-12-02T17:49:11.693466+00:00", "meta": {"OBJECT_NAME": "XM-5", "OBJECT_ID": "2010-053A", "EPOCH": "2025-12-02T10:37:38.766720", "MEAN_MOTION": 1.00270481, "ECCENTRICITY": 0.0001582, "INCLINATION": 0.0649, "RA_OF_ASC_NODE": 272.7549, "ARG_OF_PERICENTER": 239.5567, "MEAN_ANOMALY": 323.4678, "EPHEMERIS_TYPE": 0, "CLASSIFICATION_TYPE": "U", "NORAD_CAT_ID": 37185, "ELEMENT_SET_NO": 999, "REV_AT_EPOCH": 5551, "BSTAR": 0, "MEAN_MOTION_DOT": -2e-08, "MEAN_MOTION_DDOT": 0}, "tle": {"line1": "1 37185U 10053A   25336.44280980 -.00000002  00000+0  00000+0 0  9998", "line2": "2 37185   0.0649 272.7549 0001582 239.5567 323.4678  1.00270481 55516"}}, "geometry": {"type": "Point", "coordinates": [-136.05012786909944, -0.07034711197637251]}}, {"type": "Feature", "properties": {"norad_id": 37238, "name": "INTELSAT 17 (IS-17)", "group": "intelsat", "lat": 0.03505716682148109, "lon": 45.13904426161254, "alt_km": 35794.63332045214, "timestamp": "2025-12-02T17:49:11.693485+00:00", "meta": {"OBJECT_NAME": "INTELSAT 17 (IS-17)", "OBJECT_ID": "2010-065B", "EPOCH": "2025-12-02T08:57:45.241056", "MEAN_MOTION": 1.00272282, "ECCENTRICITY": 0.0002675, "INCLINATION": 0.0187, "RA_OF_ASC_NODE": 277.9001, "ARG_OF_PERICENTER": 347.1089, "MEAN_ANOMALY": 6.9134, "EPHEMERIS_TYPE": 0, "CLASSIFICATION_TYPE": "U", "NORAD_CAT_ID": 37238, "ELEMENT_SET_NO": 999, "REV_AT_EPOCH": 5127, "BSTAR": 0, "MEAN_MOTION_DOT": 1.9e-07, "MEAN_MOTION_DDOT": 0}, "tle": {"line1": "1 37238U 10065B   25336.37344029  .00000019  00000+0  00000+0 0  9994", "line2": "2 37238   0.0187 277.9001 0002675 347.1089   6.9134  1.00272282 51271"}}, "geometry": {"type": "Point", "coordinates": [45.13904426161254, 0.03505716682148109]}}, {"type": "Feature", "properties": {"norad_id": 37392, "name": "INTELSAT 28 (IS-28)", "group": "intelsat", "lat": -0.8755668540587387, "lon": -52.55976066147151, "alt_km": 35775.67206766188, "timestamp": "2025-12-02T17:49:11.693496+00:00", "meta": {"OBJECT_NAME": "INTELSAT 28 (IS-28)", "OBJECT_ID": "2011-016A", "EPOCH": "2025-12-02T08:29:47.918112", "MEAN_MOTION": 1.00271462, "ECCENTRICITY": 0.0004007, "INCLINATION": 1.2953, "RA_OF_ASC_NODE": 85.18, "ARG_OF_PERICENTER": 171.1781, "MEAN_ANOMALY": 270.8472, "EPHEMERIS_TYPE": 0, "CLASSIFICATION_TYPE": "U", "NORAD_CAT_ID": 37392, "ELEMENT_SET_NO": 999, "REV_AT_EPOCH": 5131, "BSTAR": 0, "MEAN_MOTION_DOT": -2.04e-06, "MEAN_MOTION_DDOT": 0}, "tle": {"line1": "1 37392U 11016A   25336.35402683 -.00000204  00000+0  00000+0 0  9998", "line2": "2 37392   1.2953  85.1800 0004007 171.1781 270.8472  1.00271462 51318"}}, "geometry": {"type": "Point", "coordinates": [-52.55976066147151, -0.8755668540587387]}}]}